{"type": "FeatureCollection", "features": [ {"type": "Feature", "properties": {"norad_id": 40938, "name": "BEIDOU-3S IGSO-2S (C56)", "group": "gnss", "lat": 49.41237748751178, "lon": -14.737380594475054, "alt_km": 35834.618185074774, "timestamp": "2025-12-09T11:33:55.041606+00:00", "meta": {"OBJECT_NAME": "BEIDOU-3S IGSO-2S (C56)", "OBJECT_ID": "2015-053A", "EPOCH": "2025-12-07T17:59:38.817312", "MEAN_MOTION": 1.00270783, "ECCENTRICITY": 0.0060962, "INCLINATION": 49.5194, "RA_OF_ASC_NODE": 261.0646, "ARG_OF_PERICENTER": 188.6217, "MEAN_ANOMALY": 353.0712, "EPHEMERIS_TYPE": 0, "CLASSIFICATION_TYPE": "U", "NORAD_CAT_ID": 40938, "ELEMENT_SET_NO": 999, "REV_AT_EPOCH": 3743, "BSTAR": 0, "MEAN_MOTION_DOT": -1.42e-06, "MEAN_MOTION_DDOT": 0}, "tle": {"line1": "1 40938U 15053A   25341.74975483 -.00000142  00000+0  00000+0 0  9996", "line2": "2 40938  49.5194 261.0646 0060962 188.6217 353.0712  1.00270783 37435"}}, "geometry": {"type": "Point", "coordinates": [-14.737380594475054, 49.41237748751178]}}, {"type": "Feature", "properties": {"norad_id": 41019, "name": "GPS BIIF-11 (PRN 10)", "group": "gnss", "lat": 49.41796460068912, "lon": 168.41900653628696, "alt_km": 20297.776225684396, "timestamp": "2025-12-09T11:33:55.041620+00:00", "meta": {"OBJECT_NAME": "GPS BIIF-11 (PRN 10)", "OBJECT_ID": "2015-062A", "EPOCH": "2025-12-08T07:44:45.982752", "MEAN_MOTION": 2.00566979, "ECCENTRICITY": 0.01106922, "INCLINATION": 56.829, "RA_OF_ASC_NODE": 38.1732, "ARG_OF_PERICENTER": 229.8078, "MEAN_ANOMALY": 129.2726, "EPHEMERIS_TYPE": 0, "CLASSIFICATION_TYPE": "U", "NORAD_CAT_ID": 41019, "ELEMENT_SET_NO": 999, "REV_AT_EPOCH": 7400, "BSTAR": 0, "MEAN_MOTION_DOT": -7.7e-07, "MEAN_MOTION_DDOT": 0}, "tle": {"line1": "1 41019U 15062A   25342.32275443 -.00000077  00000+0  00000+0 0  9998", "line2": "2 41019  56.8290  38.1732 0110692 229.8078 129.2726  2.00566979 74000"}}, "geometry": {"type": "Point", "coordinates": [168.41900653628696, 49.41796460068912]}}, {"type": "Feature", "properties": {"norad_id": 41028, "name": "GSAT-15 (GAGAN/PRN 139)", "group": "gnss", "lat": -0.03582706999156687, "lon": -14.519594011565351, "alt_km": 35789.621177317196, "timestamp": "2025-12-09T11:33:55.041632+00:00", "meta": {"OBJECT_NAME": "GSAT-15 (GAGAN/PRN 139)", "OBJECT_ID": "2015-065A", "EPOCH": "2025-12-09T01:54:51.422112", "MEAN_MOTION": 1.00270559, "ECCENTRICITY": 0.0002876, "INCLINATION": 0.0446, "RA_OF_ASC_NODE": 97.4412, "ARG_OF_PERICENTER": 142.8585, "MEAN_ANOMALY": 319.9925, "EPHEMERIS_TYPE": 0, "CLASSIFICATION_TYPE": "U", "NORAD_CAT_ID": 41028, "ELEMENT_SET_NO": 999, "REV_AT_EPOCH": 3689, "BSTAR": 0, "MEAN_MOTION_DOT": -2.56e-06, "MEAN_MOTION_DDOT": 0}, "tle": {"line1": "1 41028U 15065A   25343.07976183 -.00000256  00000+0  00000+0 0  9992", "line2": "2 41028   0.0446  97.4412 0002876 142.8585 319.9925  1.00270559 36897"}}, "geometry": {"type": "Point", "coordinates": [-14.519594011565351, -0.03582706999156687]}}, {"type": "Feature", "properties": {"norad_id": 41174, "name": "GSAT0209 (GALILEO 12)", "group": "gnss", "lat": -42.89442593675864, "lon": 67.16712828719886, "alt_km": 23222.531113740093, "timestamp": "2025-12-09T11:33:55.041643+00:00", "meta": {"OBJECT_NAME": "GSAT0209 (GALILEO 12)", "OBJECT_ID": "2015-079A", "EPOCH": "2025-12-08T09:34:38.512704", "MEAN_MOTION": 1.70474355, "ECCENTRICITY": 0.00023972, "INCLINATION": 55.7104, "RA_OF_ASC_NODE": 106.5001, "ARG_OF_PERICENTER": 353.8677, "MEAN_ANOMALY": 6.0907, "EPHEMERIS_TYPE": 0, "CLASSIFICATION_TYPE": "U", "NORAD_CAT_ID": 41174, "ELEMENT_SET_NO": 999, "REV_AT_EPOCH": 6152, "BSTAR": 0, "MEAN_MOTION_DOT": 1e-07, "MEAN_MOTION_DDOT": 0}, "tle": {"line1": "1 41174U 15079A   25342.39905686  .00000010  00000+0  00000+0 0  9990", "line2": "2 41174  55.7104 106.5001 0002397 353.8677   6.0907  1.70474355 61526"}}, "geometry": {"type": "Point", "coordinates": [67.16712828719886, -42.89442593675864]}}, {"type": "Feature", "properties": {"norad_id": 41175, "name": "GSAT0208 (GALILEO 11)", "group": "gnss", "lat": 8.667122630608274, "lon": -79.50704699973032, "alt_km": 23226.58217437538, "timestamp": "2025-12-09T11:33:55.041654+00:00", "meta": {"OBJECT_NAME": "GSAT0208 (GALILEO 11)", "OBJECT_ID": "2015-079B", "EPOCH": "2025-12-07T10:42:17.817120", "MEAN_MOTION": 1.70474201, "ECCENTRICITY": 0.00018539, "INCLINATION": 55.7081, "RA_OF_ASC_NODE": 106.5234, "ARG_OF_PERICENTER": 5.1909, "MEAN_ANOMALY": 354.7678, "EPHEMERIS_TYPE": 0, "CLASSIFICATION_TYPE": "U", "NORAD_CAT_ID": 41175, "ELEMENT_SET_NO": 999, "REV_AT_EPOCH": 6192, "BSTAR": 0, "MEAN_MOTION_DOT": 8e-08, "MEAN_MOTION_DDOT": 0}, "tle": {"line1": "1 41175U 15079B   25341.44603955  .00000008  00000+0  00000+0 0  9997", "line2": "2 41175  55.7081 106.5234 0001853   5.1909 354.7678  1.70474201 61922"}}, "geometry": {"type": "Point", "coordinates": [-79.50704699973032, 8.667122630608274]}}, {"type": "Feature", "properties": {"norad_id": 41241, "name": "IRNSS-1E", "group": "gnss", "lat": -27.552054202005344, "lon": 8.584014496844123, "alt_km": 35826.82352906682, "timestamp": "2025-12-09T11:33:55.041709+00:00", "meta": {"OBJECT_NAME": "IRNSS-1E", "OBJECT_ID": "2016-003A", "EPOCH": "2025-12-08T15:50:39.371424", "MEAN_MOTION": 1.00275569, "ECCENTRICITY": 0.00218793, "INCLINATION": 32.8166, "RA_OF_ASC_NODE": 62.5131, "ARG_OF_PERICENTER": 186.973, "MEAN_ANOMALY": 177.6191, "EPHEMERIS_TYPE": 0, "CLASSIFICATION_TYPE": "U", "NORAD_CAT_ID": 41241, "ELEMENT_SET_NO": 999, "REV_AT_EPOCH": 3617, "BSTAR": 0, "MEAN_MOTION_DOT": -3.11e-06, "MEAN_MOTION_DDOT": 0}, "tle": {"line1": "1 41241U 16003A   25342.66017791 -.00000311  00000+0  00000+0 0  9999", "line2": "2 41241  32.8166  62.5131 0021879 186.9730 177.6191  1.00275569 36173"}}, "geometry": {"type": "Point", "coordinates": [8.584014496844123, -27.552054202005344]}}, {"type": "Feature", "properties": {"norad_id": 41328, "name": "GPS BIIF-12 (PRN 32)", "group": "gnss", "lat": 43.43998324934037, "lon": 137.73791068598692, "alt_km": 20419.459183107432, "timestamp": "2025-12-09T11:33:55.041723+00:00", "meta": {"OBJECT_NAME": "GPS BIIF-12 (PRN 32)", "OBJECT_ID": "2016-007A", "EPOCH": "2025-12-08T09:43:25.720320", "MEAN_MOTION": 2.0056088, "ECCENTRICITY": 0.0091947, "INCLINATION": 55.4038, "RA_OF_ASC_NODE": 97.0291, "ARG_OF_PERICENTER": 243.4665, "MEAN_ANOMALY": 115.5721, "EPHEMERIS_TYPE": 0, "CLASSIFICATION_TYPE": "U", "NORAD_CAT_ID": 41328, "ELEMENT_SET_NO": 999, "REV_AT_EPOCH": 7201, "BSTAR": 0, "MEAN_MOTION_DOT": 1e-08, "MEAN_MOTION_DDOT": 0}, "tle": {"line1": "1 41328U 16007A   25342.40515880  .00000001  00000+0  00000+0 0  9998", "line2": "2 41328  55.4038  97.0291 0091947 243.4665 115.5721  2.00560880 72014"}}, "geometry": {"type": "Point", "coordinates": [137.73791068598692, 43.43998324934037]}}, {"type": "Feature", "properties": {"norad_id": 41330, "name": "COSMOS 2514 (751)", "group": "gnss", "lat": -8.634365124557496, "lon": 143.5403357242016, "alt_km": 19104.590764638953, "timestamp": "2025-12-09T11:33:55.041736+00:00", "meta": {"OBJECT_NAME": "COSMOS 2514 (751)", "OBJECT_ID": "2016-008A", "EPOCH": "2025-12-08T07:06:30.420288", "MEAN_MOTION": 2.13102512, "ECCENTRICITY": 0.00122682, "INCLINATION": 65.1364, "RA_OF_ASC_NODE": 319.5561, "ARG_OF_PERICENTER": 220.0272, "MEAN_ANOMALY": 139.8771, "EPHEMERIS_TYPE": 0, "CLASSIFICATION_TYPE": "U", "NORAD_CAT_ID": 41330, "ELEMENT_SET_NO": 999, "REV_AT_EPOCH": 7655, "BSTAR": 0, "MEAN_MOTION_DOT": -4.9e-07, "MEAN_MOTION_DDOT": 0}, "tle": {"line1": "1 41330U 16008A   25342.29618542 -.00000049  00000+0  00000+0 0  9991", "line2": "2 41330  65.1364 319.5561 0012268 220.0272 139.8771  2.13102512 76558"}}, "geometry": {"type": "Point", "coordinates": [143.5403357242016, -8.634365124557496]}}, {"type": "Feature", "properties": {"norad_id": 41384, "name": "IRNSS-1F", "group": "gnss", "lat": -0.27120801693492586, "lon": -75.68148685507035, "alt_km": 35691.39324093172, "timestamp": "2025-12-09T11:33:55.041750+00:00", "meta": {"OBJECT_NAME": "IRNSS-1F", "OBJECT_ID": "2016-015A", "EPOCH": "2025-12-09T01:44:31.732800", "MEAN_MOTION": 1.00270577, "ECCENTRICITY": 0.0022492, "INCLINATION": 4.8714, "RA_OF_ASC_NODE": 101.3906, "ARG_OF_PERICENTER": 180.2244, "MEAN_ANOMALY": 214.9479, "EPHEMERIS_TYPE": 0, "CLASSIFICATION_TYPE": "U", "NORAD_CAT_ID": 41384, "ELEMENT_SET_NO": 999, "REV_AT_EPOCH": 3576, "BSTAR": 0, "MEAN_MOTION_DOT": 1.6e-06, "MEAN_MOTION_DDOT": 0}, "tle": {"line1": "1 41384U 16015A   25343.07258950  .00000160  00000+0  00000+0 0  9991", "line2": "2 41384   4.8714 101.3906 0022492 180.2244 214.9479  1.00270577 35762"}}, "geometry": {"type": "Point", "coordinates": [-75.68148685507035, -0.27120801693492586]}}, {"type": "Feature", "properties": {"norad_id": 41434, "name": "BEIDOU-2 IGSO-6 (C13)", "group": "gnss", "lat": -44.89529464566801, "lon": 4.808798705199242, "alt_km": 35726.91704119406, "timestamp": "2025-12-09T11:33:55.041762+00:00", "meta": {"OBJECT_NAME": "BEIDOU-2 IGSO-6 (C13)", "OBJECT_ID": "2016-021A", "EPOCH": "2025-12-03T15:53:57.382080", "MEAN_MOTION": 1.00293531, "ECCENTRICITY": 0.00596341, "INCLINATION": 59.9536, "RA_OF_ASC_NODE": 39.991, "ARG_OF_PERICENTER": 228.541, "MEAN_ANOMALY": 135.1173, "EPHEMERIS_TYPE": 0, "CLASSIFICATION_TYPE": "U", "NORAD_CAT_ID": 41434, "ELEMENT_SET_NO": 999, "REV_AT_EPOCH": 3552, "BSTAR": 0, "MEAN_MOTION_DOT": -1.61e-06, "MEAN_MOTION_DDOT": 0}, "tle": {"line1": "1 41434U 16021A   25337.66246970 -.00000161  00000+0  00000+0 0  9993", "line2": "2 41434  59.9536  39.9910 0059634 228.5410 135.1173  1.00293531 35525"}}, "geometry": {"type": "Point", "coordinates": [4.808798705199242, -44.89529464566801]}}]}